start=new Date('2023-04-30T00:00:00.000Z').valueOf();
sats=[{"ELEMENT_SET_NO":"999","COUNTRY_CODE":"US","EPOCH":"2023-04-29T11:24:29.357856","DECAY_DATE":null,"CENTER_NAME":"EARTH","LAUNCH_DATE":"2021-04-07","OBJECT_NAME":"STARLINK-2476","APOAPSIS":"548.275","TLE_LINE2":"2 48134  53.0531 183.7654 0001534  91.3279 268.7886 15.06400340114876","TIME_SYSTEM":"UTC","MEAN_ELEMENT_THEORY":"SGP4","ECCENTRICITY":"0.00015340","PERIOD":"95.592","SITE":"AFETR","PERIAPSIS":"546.150","RA_OF_ASC_NODE":"183.7654","MEAN_MOTION":"15.06400340","REV_AT_EPOCH":"11487","MEAN_MOTION_DDOT":"0.0000000000000","INCLINATION":"53.0531","NORAD_CAT_ID":"48134","REF_FRAME":"TEME","MEAN_MOTION_DOT":"0.00016339","OBJECT_TYPE":"PAYLOAD","FILE":"3896517","SEMIMAJOR_AXIS":"6925.348","GP_ID":"230927233","CLASSIFICATION_TYPE":"U","MEAN_ANOMALY":"268.7886","BSTAR":"0.00111320000000","RCS_SIZE":"LARGE","TLE_LINE1":"1 48134U 21027AU  23119.47533979  .00016339  00000-0  11132-2 0  9997","ARG_OF_PERICENTER":"91.3279","EPHEMERIS_TYPE":"0","OBJECT_ID":"2021-027AU"},{"ELEMENT_SET_NO":"999","COUNTRY_CODE":"US","EPOCH":"2023-04-29T11:26:29.941152","DECAY_DATE":null,"LAUNCH_DATE":"2021-04-07","CENTER_NAME":"EARTH","MEAN_ELEMENT_THEORY":"SGP4","TIME_SYSTEM":"UTC","TLE_LINE2":"2 48135  53.0536 188.9258 0001574  93.0217 267.0952 15.06409523114805","APOAPSIS":"548.274","OBJECT_NAME":"STARLINK-2478","SITE":"AFETR","PERIOD":"95.592","ECCENTRICITY":"0.00015740","PERIAPSIS":"546.094","MEAN_MOTION_DDOT":"0.0000000000000","REV_AT_EPOCH":"11480","MEAN_MOTION":"15.06409523","RA_OF_ASC_NODE":"188.9258","NORAD_CAT_ID":"48135","INCLINATION":"53.0536","GP_ID":"230927984","SEMIMAJOR_AXIS":"6925.319","FILE":"3896517","OBJECT_TYPE":"PAYLOAD","MEAN_MOTION_DOT":"0.00022058","REF_FRAME":"TEME","MEAN_ANOMALY":"267.0952","CLASSIFICATION_TYPE":"U","RCS_SIZE":"LARGE","BSTAR":"0.00149470000000","TLE_LINE1":"1 48135U 21027AV  23119.47673543  .00022058  00000-0  14947-2 0  9992","ARG_OF_PERICENTER":"93.0217","OBJECT_ID":"2021-027AV","EPHEMERIS_TYPE":"0"},{"OBJECT_TYPE":"PAYLOAD","FILE":"3896733","REF_FRAME":"TEME","MEAN_MOTION_DOT":"0.00013137","GP_ID":"230938811","SEMIMAJOR_AXIS":"6925.389","MEAN_ANOMALY":"253.4829","CLASSIFICATION_TYPE":"U","MEAN_MOTION":"15.06386814","RA_OF_ASC_NODE":"183.6474","MEAN_MOTION_DDOT":"0.0000000000000","REV_AT_EPOCH":"11448","NORAD_CAT_ID":"48136","INCLINATION":"53.0534","ARG_OF_PERICENTER":"106.6294","OBJECT_ID":"2021-027AW","EPHEMERIS_TYPE":"0","RCS_SIZE":"LARGE","BSTAR":"0.00089950000000","TLE_LINE1":"1 48136U 21027AW  23119.50017969  .00013137  00000-0  89950-3 0  9996","EPOCH":"2023-04-29T12:00:15.525216","DECAY_DATE":null,"ELEMENT_SET_NO":"999","COUNTRY_CODE":"US","PERIOD":"95.593","ECCENTRICITY":"0.00012220","SITE":"AFETR","PERIAPSIS":"546.408","CENTER_NAME":"EARTH","LAUNCH_DATE":"2021-04-07","TLE_LINE2":"2 48136  53.0534 183.6474 0001222 106.6294 253.4829 15.06386814114485","TIME_SYSTEM":"UTC","OBJECT_NAME":"STARLINK-2479","APOAPSIS":"548.100","MEAN_ELEMENT_THEORY":"SGP4"},{"ARG_OF_PERICENTER":"96.1421","EPHEMERIS_TYPE":"0","OBJECT_ID":"2021-027AX","RCS_SIZE":"LARGE","BSTAR":"0.00043522000000","TLE_LINE1":"1 48137U 21027AX  23119.52508545  .00006208  00000-0  43522-3 0  9990","FILE":"3896517","OBJECT_TYPE":"PAYLOAD","MEAN_MOTION_DOT":"0.00006208","REF_FRAME":"TEME","GP_ID":"230928467","SEMIMAJOR_AXIS":"6925.338","MEAN_ANOMALY":"263.9707","CLASSIFICATION_TYPE":"U","MEAN_MOTION":"15.06403299","RA_OF_ASC_NODE":"163.5083","MEAN_MOTION_DDOT":"0.0000000000000","REV_AT_EPOCH":"11516","NORAD_CAT_ID":"48137","INCLINATION":"53.0523","PERIOD":"95.592","ECCENTRICITY":"0.00012140","SITE":"AFETR","PERIAPSIS":"546.363","CENTER_NAME":"EARTH","LAUNCH_DATE":"2021-04-07","TLE_LINE2":"2 48137  53.0523 163.5083 0001214  96.1421 263.9707 15.06403299115167","TIME_SYSTEM":"UTC","APOAPSIS":"548.044","OBJECT_NAME":"STARLINK-2480","MEAN_ELEMENT_THEORY":"SGP4","EPOCH":"2023-04-29T12:36:07.382880","DECAY_DATE":null,"ELEMENT_SET_NO":"999","COUNTRY_CODE":"US"},{"ELEMENT_SET_NO":"999","COUNTRY_CODE":"US","EPOCH":"2023-04-29T11:40:23.502432","DECAY_DATE":null,"LAUNCH_DATE":"2021-04-07","CENTER_NAME":"EARTH","MEAN_ELEMENT_THEORY":"SGP4","APOAPSIS":"548.047","OBJECT_NAME":"STARLINK-2481","TLE_LINE2":"2 48138  53.0544 183.7205 0001280 103.3295 256.7837 15.06417176114885","TIME_SYSTEM":"UTC","SITE":"AFETR","ECCENTRICITY":"0.00012800","PERIOD":"95.591","PERIAPSIS":"546.274","REV_AT_EPOCH":"11488","MEAN_MOTION_DDOT":"0.0000000000000","RA_OF_ASC_NODE":"183.7205","MEAN_MOTION":"15.06417176","INCLINATION":"53.0544","NORAD_CAT_ID":"48138","SEMIMAJOR_AXIS":"6925.296","GP_ID":"230927734","MEAN_MOTION_DOT":"0.00017038","REF_FRAME":"TEME","OBJECT_TYPE":"PAYLOAD","FILE":"3896517","CLASSIFICATION_TYPE":"U","MEAN_ANOMALY":"256.7837","BSTAR":"0.00115940000000","RCS_SIZE":"LARGE","TLE_LINE1":"1 48138U 21027AY  23119.48638313  .00017038  00000-0  11594-2 0  9999","ARG_OF_PERICENTER":"103.3295","EPHEMERIS_TYPE":"0","OBJECT_ID":"2021-027AY"},{"ARG_OF_PERICENTER":"74.1841","OBJECT_ID":"2021-027AZ","EPHEMERIS_TYPE":"0","RCS_SIZE":"LARGE","BSTAR":"0.00023788000000","TLE_LINE1":"1 48139U 21027AZ  23119.41081884  .00003262  00000-0  23788-3 0  9991","GP_ID":"230927484","SEMIMAJOR_AXIS":"6925.387","FILE":"3896517","OBJECT_TYPE":"PAYLOAD","REF_FRAME":"TEME","MEAN_MOTION_DOT":"0.00003262","MEAN_ANOMALY":"285.9295","CLASSIFICATION_TYPE":"U","MEAN_MOTION_DDOT":"0.0000000000000","REV_AT_EPOCH":"11515","MEAN_MOTION":"15.06387508","RA_OF_ASC_NODE":"164.0525","NORAD_CAT_ID":"48139","INCLINATION":"53.0533","SITE":"AFETR","PERIOD":"95.593","ECCENTRICITY":"0.00013340","PERIAPSIS":"546.328","LAUNCH_DATE":"2021-04-07","CENTER_NAME":"EARTH","MEAN_ELEMENT_THEORY":"SGP4","TLE_LINE2":"2 48139  53.0533 164.0525 0001334  74.1841 285.9295 15.06387508115151","TIME_SYSTEM":"UTC","APOAPSIS":"548.176","OBJECT_NAME":"STARLINK-2482","EPOCH":"2023-04-29T09:51:34.747776","DECAY_DATE":null,"ELEMENT_SET_NO":"999","COUNTRY_CODE":"US"},{"EPOCH":"2023-04-29T15:27:15.003360","DECAY_DATE":null,"ELEMENT_SET_NO":"999","COUNTRY_CODE":"US","ECCENTRICITY":"0.00014050","PERIOD":"95.592","SITE":"AFETR","PERIAPSIS":"546.237","CENTER_NAME":"EARTH","LAUNCH_DATE":"2021-04-07","OBJECT_NAME":"STARLINK-2483","APOAPSIS":"548.183","TIME_SYSTEM":"UTC","TLE_LINE2":"2 48140  53.0533 183.0057 0001405  95.1622 264.9527 15.06401289114509","MEAN_ELEMENT_THEORY":"SGP4","REF_FRAME":"TEME","MEAN_MOTION_DOT":"0.00012342","FILE":"3896750","OBJECT_TYPE":"PAYLOAD","SEMIMAJOR_AXIS":"6925.345","GP_ID":"230939055","CLASSIFICATION_TYPE":"U","MEAN_ANOMALY":"264.9527","RA_OF_ASC_NODE":"183.0057","MEAN_MOTION":"15.06401289","REV_AT_EPOCH":"11450","MEAN_MOTION_DDOT":"0.0000000000000","INCLINATION":"53.0533","NORAD_CAT_ID":"48140","ARG_OF_PERICENTER":"95.1622","EPHEMERIS_TYPE":"0","OBJECT_ID":"2021-027BA","BSTAR":"0.00084595000000","RCS_SIZE":"LARGE","TLE_LINE1":"1 48140U 21027BA  23119.64392365  .00012342  00000-0  84595-3 0  9999"},{"MEAN_MOTION_DDOT":"0.0000000000000","REV_AT_EPOCH":"11489","RA_OF_ASC_NODE":"183.8036","MEAN_MOTION":"15.06404409","NORAD_CAT_ID":"48141","INCLINATION":"53.0533","GP_ID":"230928968","SEMIMAJOR_AXIS":"6925.335","FILE":"3896517","OBJECT_TYPE":"PAYLOAD","MEAN_MOTION_DOT":"-0.00001685","REF_FRAME":"TEME","MEAN_ANOMALY":"282.2964","CLASSIFICATION_TYPE":"U","RCS_SIZE":"LARGE","BSTAR":"-0.00009419200000","TLE_LINE1":"1 48141U 21027BB  23119.46794534 -.00001685  00000-0 -94192-4 0  9999","ARG_OF_PERICENTER":"77.8251","OBJECT_ID":"2021-027BB","EPHEMERIS_TYPE":"0","ELEMENT_SET_NO":"999","COUNTRY_CODE":"US","EPOCH":"2023-04-29T11:13:50.477376","DECAY_DATE":null,"LAUNCH_DATE":"2021-04-07","CENTER_NAME":"EARTH","MEAN_ELEMENT_THEORY":"SGP4","TIME_SYSTEM":"UTC","TLE_LINE2":"2 48141  53.0533 183.8036 0002021  77.8251 282.2964 15.06404409114892","OBJECT_NAME":"STARLINK-2484","APOAPSIS":"548.600","SITE":"AFETR","PERIOD":"95.592","ECCENTRICITY":"0.00020210","PERIAPSIS":"545.800"},{"ARG_OF_PERICENTER":"90.1418","OBJECT_ID":"2021-027BC","EPHEMERIS_TYPE":"0","RCS_SIZE":"LARGE","BSTAR":"0.00045163000000","TLE_LINE1":"1 48142U 21027BC  23119.40714304  .00006452  00000-0  45163-3 0  9999","FILE":"3896517","OBJECT_TYPE":"PAYLOAD","REF_FRAME":"TEME","MEAN_MOTION_DOT":"0.00006452","GP_ID":"230927234","SEMIMAJOR_AXIS":"6925.346","MEAN_ANOMALY":"269.9749","CLASSIFICATION_TYPE":"U","RA_OF_ASC_NODE":"164.0724","MEAN_MOTION":"15.06400750","MEAN_MOTION_DDOT":"0.0000000000000","REV_AT_EPOCH":"11515","NORAD_CAT_ID":"48142","INCLINATION":"53.0525","PERIOD":"95.592","ECCENTRICITY":"0.00015530","SITE":"AFETR","PERIAPSIS":"546.136","CENTER_NAME":"EARTH","LAUNCH_DATE":"2021-04-07","TLE_LINE2":"2 48142  53.0525 164.0724 0001553  90.1418 269.9749 15.06400750115159","TIME_SYSTEM":"UTC","APOAPSIS":"548.287","OBJECT_NAME":"STARLINK-2485","MEAN_ELEMENT_THEORY":"SGP4","EPOCH":"2023-04-29T09:46:17.158656","DECAY_DATE":null,"ELEMENT_SET_NO":"999","COUNTRY_CODE":"US"},{"LAUNCH_DATE":"2021-04-07","CENTER_NAME":"EARTH","MEAN_ELEMENT_THEORY":"SGP4","OBJECT_NAME":"STARLINK-2486","APOAPSIS":"548.216","TLE_LINE2":"2 48143  53.0539 119.4473 0001408  76.8522 283.2624 15.06391088115767","TIME_SYSTEM":"UTC","SITE":"AFETR","ECCENTRICITY":"0.00014080","PERIOD":"95.593","PERIAPSIS":"546.266","ELEMENT_SET_NO":"999","COUNTRY_CODE":"US","EPOCH":"2023-04-29T07:46:10.409376","DECAY_DATE":null,"BSTAR":"0.00032664000000","RCS_SIZE":"LARGE","TLE_LINE1":"1 48143U 21027BD  23119.32373159  .00004586  00000-0  32664-3 0  9998","ARG_OF_PERICENTER":"76.8522","OBJECT_ID":"2021-027BD","EPHEMERIS_TYPE":"0","REV_AT_EPOCH":"11576","MEAN_MOTION_DDOT":"0.0000000000000","RA_OF_ASC_NODE":"119.4473","MEAN_MOTION":"15.06391088","INCLINATION":"53.0539","NORAD_CAT_ID":"48143","SEMIMAJOR_AXIS":"6925.376","GP_ID":"230927985","MEAN_MOTION_DOT":"0.00004586","REF_FRAME":"TEME","OBJECT_TYPE":"PAYLOAD","FILE":"3896517","CLASSIFICATION_TYPE":"U","MEAN_ANOMALY":"283.2624"}];
